[{"OBJECT_NAME":"STARLINK-35596","OBJECT_ID":"2025-236A","EPOCH":"2026-03-09T09:15:44.257824","MEAN_MOTION":15.30199694,"ECCENTRICITY":0.00013216,"INCLINATION":53.1577,"RA_OF_ASC_NODE":105.5998,"ARG_OF_PERICENTER":76.5169,"MEAN_ANOMALY":283.5979,"EPHEMERIS_TYPE":0,"CLASSIFICATION_TYPE":"U","NORAD_CAT_ID":66086,"ELEMENT_SET_NO":999,"REV_AT_EPOCH":2289,"BSTAR":0.00073183761,"MEAN_MOTION_DOT":0.00021378,"MEAN_MOTION_DDOT":0},{"OBJECT_NAME":"SPACEMOBILE-005 DEB","OBJECT_ID":"2024-163K","EPOCH":"2026-03-09T07:33:15.902496","MEAN_MOTION":15.31481997,"ECCENTRICITY":0.00072885,"INCLINATION":52.9762,"RA_OF_ASC_NODE":31.7924,"ARG_OF_PERICENTER":175.8731,"MEAN_ANOMALY":184.2329,"EPHEMERIS_TYPE":0,"CLASSIFICATION_TYPE":"U","NORAD_CAT_ID":62373,"ELEMENT_SET_NO":999,"REV_AT_EPOCH":8280,"BSTAR":0.00063853778,"MEAN_MOTION_DOT":0.00019381,"MEAN_MOTION_DDOT":0}]
